IRIDIUM 39              
1 25042U 97069D   25328.44454380  .00000798  00000+0  20274-3 0  9997
2 25042  86.3906 142.4785 0019389 127.1463 233.1516 14.49462337472177
IRIDIUM 38              
1 25043U 97069E   25328.05456963  .00000501  00000+0  15841-3 0  9990
2 25043  86.3974 165.9644 0000886  20.2423 339.8810 14.38288149468933
IRIDIUM 42              
1 25077U 97077A   25328.11826791  .00000430  00000+0  13987-3 0  9993
2 25077  86.3984 172.3001 0001607  66.8481 293.2885 14.36508746464153
IRIDIUM 44              
1 25078U 97077B   25328.05763681  .00000466  00000+0  14056-3 0  9992
2 25078  86.3964 153.8402 0001587 147.8089 212.3208 14.40408911466715
IRIDIUM 45              
1 25104U 97082A   25328.43409503  .00024313  00000+0  70714-3 0  9990
2 25104  86.3539 329.6906 0104366  88.4577 272.8623 15.29943232476470
IRIDIUM 24              
1 25105U 97082B   25328.17035144  .00000499  00000+0  14509-3 0  9997
2 25105  86.3928  12.4310 0009141 268.3944  91.6209 14.42302150466277
IRIDIUM 51              
1 25262U 98018A   25328.42582959  .00086564  00000+0  10681-2 0  9993
2 25262  86.3745 335.6182 0056432 352.0228   8.0131 15.57912320471798
IRIDIUM 57              
1 25273U 98019B   25328.37660101  .00000460  00000+0  15146-3 0  9999
2 25273  86.3953  78.0907 0001972  94.3158 265.8264 14.36030147447776
